state,city,zip,rent,negative_sample
Niedersachsen,Osnabrueck,49075,10.45,0
Bayern,Dachau,85221,10.62,0
Niedersachsen,Wolfsburg,38445,10.97,0
Baden-Wuerttemberg,Karlsruhe,76208,9.14,0
Bayern,Kaufbeuren,87602,6.91,0
Nordrhein-Westfalen,Muenster,48159,6.27,0
Nordrhein-Westfalen,Wuppertal,42215,5.07,0
Hessen,Offenbach am Main,63071,11.07,0
Nordrhein-Westfalen,Duisburg,47244,4.98,0
Niedersachsen,Oldenburg,26128,8.25,0
Niedersachsen,Wolfsburg,38442,7.09,0
Hessen,Ruesselsheim am Main,65429,8.09,0
Nordrhein-Westfalen,Koeln,50698,10.41,0
Hessen,Ruesselsheim am Main,65429,8.82,0
Niedersachsen,Braunschweig,38101,8.37,0
Nordrhein-Westfalen,Essen,45132,5.23,0
Bayern,Muenchen,85451,13.34,0
Bayern,Rosenheim,83022,10.0,0
Hessen,Kassel,34302,9.19,0
Nordrhein-Westfalen,Dortmund,44165,8.02,0
Baden-Wuerttemberg,Mannheim,68193,9.9,0
Nordrhein-Westfalen,Bielefeld,33663,6.78,0
Baden-Wuerttemberg,Pforzheim,75180,7.65,0
Niedersachsen,Braunschweig,38108,8.77,0
Hessen,Frankfurt am Main,61634,12.24,0
Nordrhein-Westfalen,Bochum,44821,5.54,0
Hessen,Giessen,35398,9.29,0
Hessen,Fulda,36039,7.5,0
Niedersachsen,Hildesheim,31137,5.7,0
Hessen,Hanau,63451,8.96,0
Nordrhein-Westfalen,Gelsenkirchen,45893,5.03,0
Hessen,Fulda,36042,8.66,0
Baden-Wuerttemberg,Heilbronn,74077,12.25,0
Hessen,Marburg,35043,10.34,0
Baden-Wuerttemberg,Freiburg im Breisgau,79110,14.67,0
Hessen,Hanau,63456,10.04,0
Niedersachsen,Osnabrueck,49087,9.15,0
Nordrhein-Westfalen,Duesseldorf,40657,7.69,0
Nordrhein-Westfalen,Bochum,44827,5.93,0
Hessen,Frankfurt am Main,65566,16.41,0
Baden-Wuerttemberg,Esslingen am Neckar,73732,8.3,0
Hessen,Giessen,35396,9.34,0
Niedersachsen,Wolfsburg,38445,8.52,0
Baden-Wuerttemberg,Reutlingen,72761,6.87,0
Hessen,Marburg,35040,9.04,0
Niedersachsen,Wolfsburg,38443,10.36,0
Niedersachsen,Hannover,30406,7.86,0
Niedersachsen,Goettingen,37075,7.93,0
Baden-Wuerttemberg,Stuttgart,70177,13.89,0
Niedersachsen,Wolfsburg,38440,10.41,0
Bayern,Ingolstadt,85053,11.11,0
Bayern,Neu-Ulm,89231,10.32,0
Nordrhein-Westfalen,Koeln,50699,9.84,0
Niedersachsen,Hannover,30445,9.05,0
Baden-Wuerttemberg,Heilbronn,74081,11.76,0
Niedersachsen,Goettingen,37084,8.1,0
Bayern,Bayreuth,95445,9.77,0
Baden-Wuerttemberg,Stuttgart,70216,14.91,0
Nordrhein-Westfalen,Gelsenkirchen,45890,5.09,0
Niedersachsen,Wolfsburg,38440,9.95,0
Bayern,Fuerth,90764,10.53,0
Hessen,Kassel,34235,7.71,0
Baden-Wuerttemberg,Karlsruhe,76193,9.57,0
Bayern,Regensburg,93051,9.88,0
Niedersachsen,Osnabrueck,49077,7.87,0
Niedersachsen,Braunschweig,38104,8.14,0
Niedersachsen,Osnabrueck,49078,7.2,0
Nordrhein-Westfalen,Koeln,50867,9.51,0
Hessen,Kassel,34278,7.07,0
Bayern,Passau,94034,8.88,0
Bayern,Augsburg,86168,9.66,0
Bayern,Memmingen,87701,6.64,0
Niedersachsen,Oldenburg,26129,9.1,0
Baden-Wuerttemberg,Esslingen am Neckar,73733,8.83,0
Baden-Wuerttemberg,Ludwigsburg,71653,8.75,0
Nordrhein-Westfalen,Wuppertal,42273,4.45,0
Niedersachsen,Braunschweig,38121,8.93,0
Baden-Wuerttemberg,Pforzheim,75175,7.82,0
Hessen,Frankfurt am Main,64338,14.33,0
Niedersachsen,Goettingen,37074,9.26,0
Baden-Wuerttemberg,Heilbronn,74078,9.38,0
Niedersachsen,Braunschweig,38104,9.17,0
Hessen,Hanau,63456,9.99,0
Nordrhein-Westfalen,Moenchengladbach,41102,5.08,0
Niedersachsen,Oldenburg,26129,8.15,0
Niedersachsen,Osnabrueck,49088,7.91,0
Nordrhein-Westfalen,Gelsenkirchen,45897,6.53,0
Niedersachsen,Osnabrueck,49082,5.67,0
Niedersachsen,Osnabrueck,49090,9.21,0
Bayern,Passau,94032,8.4,0
Baden-Wuerttemberg,Karlsruhe,76141,9.75,0
Hessen,Marburg,35053,9.26,0
Nordrhein-Westfalen,Muenster,48157,10.1,0
Baden-Wuerttemberg,Pforzheim,75179,7.15,0
Baden-Wuerttemberg,Ludwigsburg,71644,8.58,0
Bayern,Straubing,94315,6.43,0
Baden-Wuerttemberg,Mannheim,68272,9.78,0
Baden-Wuerttemberg,Karlsruhe,76201,8.56,0
Nordrhein-Westfalen,Duesseldorf,40226,10.79,0
Baden-Wuerttemberg,Esslingen am Neckar,73728,7.84,0
Niedersachsen,Hildesheim,31134,7.31,0
Hessen,Frankfurt am Main,65022,14.26,0
Baden-Wuerttemberg,Stuttgart,70444,15.68,0
Nordrhein-Westfalen,Koeln,50895,9.66,0
Baden-Wuerttemberg,Ludwigsburg,71659,8.09,0
Niedersachsen,Osnabrueck,49090,9.21,0
Nordrhein-Westfalen,Moenchengladbach,41118,5.65,0
Baden-Wuerttemberg,Reutlingen,72767,7.09,0
Hessen,Giessen,35397,8.05,0
Bayern,Augsburg,86192,9.25,0
Bayern,Freising,85356,11.24,0
Hessen,Kassel,34310,7.96,0
Bayern,Memmingen,87701,8.14,0
Baden-Wuerttemberg,Pforzheim,75176,6.73,0
Niedersachsen,Hildesheim,31141,7.44,0
Hessen,Kassel,34211,6.16,0
Hessen,Offenbach am Main,63066,12.09,0
Hessen,Offenbach am Main,63070,11.44,0
Bayern,Passau,94032,8.74,0
Baden-Wuerttemberg,Pforzheim,75173,5.84,0
Nordrhein-Westfalen,Koeln,50887,8.84,0
Niedersachsen,Braunschweig,38100,7.54,0
Baden-Wuerttemberg,Reutlingen,72765,7.27,0
Nordrhein-Westfalen,Muenster,48143,10.24,0
Bayern,Memmingen,87702,7.55,0
Hessen,Ruesselsheim am Main,65428,8.1,0
Hessen,Hanau,63455,10.79,0
Bayern,Landshut,84033,9.64,0
Niedersachsen,Braunschweig,38110,9.32,0
Bayern,Ingolstadt,85056,10.46,0
Bayern,Memmingen,87702,7.28,0
Hessen,Ruesselsheim am Main,65429,9.79,0
Bayern,Nuernberg,90475,10.8,0
Baden-Wuerttemberg,Ulm,89139,11.6,0
Hessen,Marburg,35083,9.79,0
Nordrhein-Westfalen,Essen,45141,5.89,0
Baden-Wuerttemberg,Pforzheim,75180,6.42,0
Niedersachsen,Hildesheim,31136,7.56,0
Hessen,Ruesselsheim am Main,65429,8.1,0
Niedersachsen,Osnabrueck,49079,7.64,0
Nordrhein-Westfalen,Bielefeld,33603,7.99,0
Niedersachsen,Osnabrueck,49086,11.13,0
Bayern,Freising,85356,11.42,0
Bayern,Augsburg,86175,11.54,0
Baden-Wuerttemberg,Reutlingen,72768,8.18,0
Nordrhein-Westfalen,Moenchengladbach,41091,4.21,0
Niedersachsen,Goettingen,37076,9.31,0
Baden-Wuerttemberg,Mannheim,68205,8.19,0
Hessen,Marburg,35038,8.8,0
Bayern,Bamberg,96048,9.42,0
Baden-Wuerttemberg,Reutlingen,72764,6.27,0
Hessen,Giessen,35396,8.18,0
Niedersachsen,Hildesheim,31139,6.47,0
Niedersachsen,Braunschweig,38112,9.21,0
Bayern,Kempten,87437,9.25,0
Hessen,Ruesselsheim am Main,65429,9.73,0
Bayern,Landshut,84035,9.02,0
Baden-Wuerttemberg,Esslingen am Neckar,73733,8.35,0
Bayern,Bamberg,96052,9.21,0
Niedersachsen,Wolfsburg,38442,10.09,0
Bayern,Nuernberg,90468,10.16,0
Nordrhein-Westfalen,Koeln,51288,9.84,0
Hessen,Giessen,35391,7.97,0
Bayern,Kempten,87435,9.37,0
Bayern,Aschaffenburg,63742,8.17,0
Hessen,Fulda,36040,7.65,0
Nordrhein-Westfalen,Essen,45234,5.23,0
Niedersachsen,Wolfsburg,38442,9.13,0
Niedersachsen,Wolfsburg,38447,8.45,0
Baden-Wuerttemberg,Freiburg im Breisgau,79117,14.06,0
Bayern,Memmingen,87702,6.85,0
Nordrhein-Westfalen,Duesseldorf,40706,8.35,0
Nordrhein-Westfalen,Koeln,50945,9.22,0
Niedersachsen,Goettingen,37084,8.99,0
Hessen,Offenbach am Main,63075,11.41,0
Bayern,Rosenheim,83024,9.3,0
Niedersachsen,Hildesheim,31135,6.82,0
Baden-Wuerttemberg,Esslingen am Neckar,73734,8.62,0
Hessen,Giessen,35394,8.47,0
Nordrhein-Westfalen,Bielefeld,33679,7.46,0
Niedersachsen,Braunschweig,38122,7.43,0
Hessen,Frankfurt am Main,63150,13.5,0
Baden-Wuerttemberg,Esslingen am Neckar,73732,10.38,0
Bayern,Kaufbeuren,87600,6.62,0
Niedersachsen,Osnabrueck,49082,9.06,0
Bayern,Nuernberg,90408,11.11,0
Baden-Wuerttemberg,Reutlingen,72764,7.9,0
Niedersachsen,Wolfsburg,38442,12.36,0
Niedersachsen,Osnabrueck,49077,7.1,0
Baden-Wuerttemberg,Ulm,89154,9.99,0
Hessen,Wiesbaden,58907,9.87,0
Niedersachsen,Oldenburg,26122,8.59,0
Niedersachsen,Braunschweig,38108,7.86,0
Hessen,Wiesbaden,62618,11.23,0
Bayern,Passau,94033,7.67,0
Bayern,Neu-Ulm,89231,9.71,0
Bayern,Schweinfurt,97424,7.92,0
Bayern,Erlangen,91056,10.49,0
Bayern,Fuerth,90767,9.05,0
Nordrhein-Westfalen,Aachen,52079,7.94,0
Hessen,Kassel,34264,8.0,0
Niedersachsen,Osnabrueck,49080,7.5,0
Bayern,Rosenheim,83023,8.06,0
Nordrhein-Westfalen,Essen,45267,7.48,0
Niedersachsen,Osnabrueck,49082,8.28,0
Hessen,Frankfurt am Main,65335,14.19,0
Baden-Wuerttemberg,Ulm,89102,10.87,0
Baden-Wuerttemberg,Reutlingen,72769,7.74,0
Nordrhein-Westfalen,Bonn,53197,8.84,0
Nordrhein-Westfalen,Aachen,52075,8.78,0
Nordrhein-Westfalen,Gelsenkirchen,45879,4.39,0
Niedersachsen,Osnabrueck,49089,8.87,0
Nordrhein-Westfalen,Aachen,52075,7.86,0
Bayern,Regensburg,93056,7.62,0
Bayern,Schweinfurt,97423,5.22,0
Bayern,Muenchen,81638,12.91,0
Bayern,Wuerzburg,97074,10.19,0
Hessen,Offenbach am Main,63067,12.56,0
Hessen,Wiesbaden,60976,12.19,0
Niedersachsen,Goettingen,37085,8.54,0
Nordrhein-Westfalen,Bochum,44880,5.33,0
Bayern,Dachau,85221,9.98,0
Niedersachsen,Hannover,30567,10.39,0
Niedersachsen,Hildesheim,31134,6.31,0
Nordrhein-Westfalen,Wuppertal,42296,4.8,0
Nordrhein-Westfalen,Koeln,51024,8.8,0
Bayern,Bamberg,96048,10.55,0
Niedersachsen,Hannover,30211,11.18,0
Bayern,Landshut,84028,7.38,0
Hessen,Fulda,36041,9.24,0
Bayern,Bamberg,96049,8.97,0
Nordrhein-Westfalen,Essen,45236,6.88,0
Nordrhein-Westfalen,Duesseldorf,40510,9.74,0
Nordrhein-Westfalen,Dortmund,44355,6.4,0
Baden-Wuerttemberg,Stuttgart,70270,14.07,0
Nordrhein-Westfalen,Bonn,53204,9.04,0
Nordrhein-Westfalen,Essen,45235,6.2,0
Baden-Wuerttemberg,Ulm,89088,11.01,0
Bayern,Hof,95031,6.5,0
Bayern,Dachau,85222,11.5,0
Nordrhein-Westfalen,Duesseldorf,40461,9.57,0
Hessen,Kassel,34273,7.88,0
Bayern,Regensburg,93055,12.53,0
Hessen,Wiesbaden,62537,10.29,0
Baden-Wuerttemberg,Freiburg im Breisgau,79114,13.64,0
Baden-Wuerttemberg,Ulm,89152,10.48,0
Nordrhein-Westfalen,Duisburg,47068,5.1,0
Baden-Wuerttemberg,Heilbronn,74078,10.64,0
Hessen,Marburg,35054,10.0,0
Hessen,Frankfurt am Main,60824,14.54,0
Hessen,Hanau,63454,9.21,0
Bayern,Passau,94036,8.43,0
Niedersachsen,Hildesheim,31137,7.37,0
Hessen,Giessen,35394,8.39,0
Bayern,Straubing,94316,6.94,0
Niedersachsen,Braunschweig,38105,9.91,0
Nordrhein-Westfalen,Duisburg,47261,5.94,0
Nordrhein-Westfalen,Koeln,51002,10.52,0
Nordrhein-Westfalen,Koeln,51177,9.99,0
Bayern,Neu-Ulm,89231,10.71,0
Baden-Wuerttemberg,Stuttgart,70286,15.04,0
Niedersachsen,Goettingen,37075,7.92,0
Niedersachsen,Oldenburg,26121,9.37,0
Nordrhein-Westfalen,Muenster,48153,6.97,0
Baden-Wuerttemberg,Ulm,89153,10.82,0
Baden-Wuerttemberg,Tuebingen,72075,9.48,0
Bayern,Memmingen,87701,7.29,0
Niedersachsen,Braunschweig,38105,10.47,0
Niedersachsen,Wolfsburg,38446,10.53,0
Bayern,Kempten,87438,7.28,0
Bayern,Schweinfurt,97423,6.32,0
Nordrhein-Westfalen,Muenster,48159,8.17,0
Baden-Wuerttemberg,Karlsruhe,76135,9.59,0
Hessen,Offenbach am Main,63066,12.96,0
Niedersachsen,Hannover,30179,8.59,0
Bayern,Wuerzburg,97075,9.72,0
Bayern,Straubing,94315,7.67,0
Bayern,Memmingen,87701,10.25,0
Niedersachsen,Osnabrueck,49081,7.93,0
Hessen,Ruesselsheim am Main,65429,9.22,0
Niedersachsen,Hannover,30620,10.96,0
Bayern,Bayreuth,95448,8.64,0
Bayern,Nuernberg,90473,9.13,0
Baden-Wuerttemberg,Stuttgart,70581,12.69,0
Niedersachsen,Braunschweig,38100,8.82,0
Niedersachsen,Osnabrueck,49078,8.31,0
Nordrhein-Westfalen,Bonn,53164,10.8,0
Nordrhein-Westfalen,Wuppertal,42344,6.18,0
Baden-Wuerttemberg,Mannheim,68278,8.42,0
Baden-Wuerttemberg,Pforzheim,75173,7.53,0
Niedersachsen,Hannover,30242,9.38,0
Baden-Wuerttemberg,Ulm,89113,11.03,0
Bayern,Schweinfurt,97422,6.04,0
Baden-Wuerttemberg,Ulm,89135,12.14,0
Hessen,Ruesselsheim am Main,65428,10.75,0
Hessen,Ruesselsheim am Main,65429,10.09,0
Hessen,Wiesbaden,64681,10.2,0
Niedersachsen,Goettingen,37083,8.01,0
Nordrhein-Westfalen,Aachen,52078,8.57,0
Nordrhein-Westfalen,Muenster,48143,7.54,0
Niedersachsen,Hildesheim,31141,5.88,0
Bayern,Muenchen,82115,12.27,0
Bayern,Regensburg,93049,10.78,0
Hessen,Fulda,36040,8.26,0
Nordrhein-Westfalen,Duisburg,47243,6.82,0
Baden-Wuerttemberg,Pforzheim,75174,11.24,0
Niedersachsen,Hannover,30403,9.05,0
Nordrhein-Westfalen,Wuppertal,42373,5.71,0
Bayern,Wuerzburg,97072,10.56,0
Bayern,Ingolstadt,85052,10.84,0
Niedersachsen,Goettingen,37073,8.8,0
Bayern,Aschaffenburg,63743,10.29,0
Bayern,Landshut,84036,9.31,0
Baden-Wuerttemberg,Ulm,89142,11.32,0
Bayern,Straubing,94315,7.3,0
Nordrhein-Westfalen,Moenchengladbach,41130,4.59,0
Baden-Wuerttemberg,Tuebingen,72070,7.87,0
Nordrhein-Westfalen,Dortmund,44249,4.13,0
Nordrhein-Westfalen,Aachen,52076,9.58,0
Niedersachsen,Braunschweig,38125,8.87,0
Hessen,Marburg,35052,9.73,0
Niedersachsen,Hildesheim,31137,4.43,0
Hessen,Kassel,34167,8.18,0
Niedersachsen,Oldenburg,26132,7.92,0
Baden-Wuerttemberg,Esslingen am Neckar,73730,9.9,0
Baden-Wuerttemberg,Reutlingen,72768,6.48,0
Bayern,Straubing,94316,6.1,0
Niedersachsen,Hannover,30275,9.47,0
Baden-Wuerttemberg,Heilbronn,74077,7.42,0
Nordrhein-Westfalen,Essen,45306,7.42,0
Nordrhein-Westfalen,Dortmund,44266,4.97,0
Niedersachsen,Hildesheim,31139,6.66,0
Nordrhein-Westfalen,Duisburg,47226,6.54,0
Niedersachsen,Braunschweig,38117,9.0,0
Niedersachsen,Wolfsburg,38440,9.7,0
Hessen,Frankfurt am Main,65145,12.53,0
Niedersachsen,Hildesheim,31137,7.43,0
Bayern,Fuerth,90767,9.5,0
Hessen,Darmstadt,64289,10.13,0
Hessen,Ruesselsheim am Main,65428,9.52,0
Bayern,Hof,95032,5.55,0
Nordrhein-Westfalen,Koeln,51213,9.27,0
Nordrhein-Westfalen,Bielefeld,33649,6.18,0
Baden-Wuerttemberg,Freiburg im Breisgau,79105,11.74,0
Nordrhein-Westfalen,Moenchengladbach,41177,8.39,0
Bayern,Rosenheim,83023,9.17,0
Niedersachsen,Oldenburg,26132,8.48,0
Hessen,Ruesselsheim am Main,65429,8.46,0
Nordrhein-Westfalen,Bielefeld,33658,6.03,0
Niedersachsen,Hildesheim,31136,7.88,0
Nordrhein-Westfalen,Moenchengladbach,41201,5.18,0
Nordrhein-Westfalen,Gelsenkirchen,45899,6.76,0
Nordrhein-Westfalen,Aachen,52070,10.36,0
Hessen,Darmstadt,64295,9.64,0
Baden-Wuerttemberg,Reutlingen,72765,7.21,0
Hessen,Kassel,34316,8.37,0
Baden-Wuerttemberg,Stuttgart,70418,14.23,0
Baden-Wuerttemberg,Pforzheim,75172,8.37,0
Baden-Wuerttemberg,Ulm,89159,11.73,0
Baden-Wuerttemberg,Heidelberg,69125,11.29,0
Nordrhein-Westfalen,Dortmund,44135,7.36,0
Nordrhein-Westfalen,Duesseldorf,40702,8.7,0
Niedersachsen,Hannover,30370,8.86,0
Baden-Wuerttemberg,Heilbronn,74074,10.27,0
Baden-Wuerttemberg,Tuebingen,72071,8.91,0
Niedersachsen,Wolfsburg,38447,9.66,0
Nordrhein-Westfalen,Essen,45335,6.76,0
Hessen,Offenbach am Main,63074,9.36,0
Hessen,Giessen,35397,9.07,0
Baden-Wuerttemberg,Ulm,89101,10.72,0
Nordrhein-Westfalen,Duesseldorf,40707,10.1,0
Hessen,Giessen,35393,8.84,0
Bayern,Landshut,84028,8.45,0
Baden-Wuerttemberg,Esslingen am Neckar,73733,8.63,0
Bayern,Muenchen,82676,12.6,0
Baden-Wuerttemberg,Reutlingen,72763,5.06,0
Niedersachsen,Hannover,30477,9.67,0
Hessen,Giessen,35393,9.02,0
Bayern,Dachau,85222,11.71,0
Hessen,Giessen,35393,9.7,0
Nordrhein-Westfalen,Aachen,52076,7.77,0
Niedersachsen,Hannover,30254,8.54,0
Baden-Wuerttemberg,Ulm,89099,11.78,0
Niedersachsen,Hildesheim,31140,7.07,0
Niedersachsen,Braunschweig,38102,8.23,0
Bayern,Erlangen,91058,9.86,0
Bayern,Landshut,84031,10.2,0
Bayern,Kempten,87435,6.94,0
Bayern,Wuerzburg,97079,9.14,0
Nordrhein-Westfalen,Gelsenkirchen,45892,6.86,0
Baden-Wuerttemberg,Ludwigsburg,71637,8.65,0
Niedersachsen,Braunschweig,38104,9.42,0
Baden-Wuerttemberg,Pforzheim,75180,9.03,0
Bayern,Augsburg,86157,10.46,0
Nordrhein-Westfalen,Moenchengladbach,41061,6.77,0
Nordrhein-Westfalen,Muenster,48154,7.94,0
Niedersachsen,Osnabrueck,49074,8.93,0
Nordrhein-Westfalen,Dortmund,44149,8.3,0
Baden-Wuerttemberg,Stuttgart,70540,12.64,0
Nordrhein-Westfalen,Gelsenkirchen,45888,5.86,0
Hessen,Fulda,36038,9.41,0
Nordrhein-Westfalen,Bielefeld,33610,6.69,0
Bayern,Neu-Ulm,89231,11.54,0
Hessen,Wiesbaden,64812,9.58,0
Baden-Wuerttemberg,Ludwigsburg,71648,10.73,0
Niedersachsen,Braunschweig,38108,9.63,0
Bayern,Landshut,84036,8.04,0
Hessen,Kassel,34186,8.84,0
Baden-Wuerttemberg,Ludwigsburg,71644,8.95,0
Bayern,Rosenheim,83024,8.96,0
Niedersachsen,Braunschweig,38102,10.5,0
Nordrhein-Westfalen,Koeln,50677,9.13,0
Bayern,Wuerzburg,97078,10.26,0
Niedersachsen,Oldenburg,26127,8.96,0
Bayern,Erlangen,91053,12.01,0
Nordrhein-Westfalen,Koeln,50819,9.35,0
Hessen,Giessen,35396,9.36,0
Bayern,Schweinfurt,97421,5.64,0
Bayern,Kempten,87438,7.9,0
Bayern,Freising,85356,9.92,0
Bayern,Straubing,94316,6.02,0
Bayern,Neu-Ulm,89233,10.09,0
Baden-Wuerttemberg,Ludwigsburg,71668,8.73,0
Niedersachsen,Hannover,30339,9.16,0
Hessen,Giessen,35395,9.38,0
Nordrhein-Westfalen,Dortmund,44159,6.32,0
Bayern,Nuernberg,90458,10.68,0
Bayern,Freising,85354,10.63,0
Bayern,Erlangen,91054,12.21,0
Bayern,Neu-Ulm,89232,11.27,0
Bayern,Neu-Ulm,89233,10.87,0
Hessen,Hanau,63451,9.23,0
Nordrhein-Westfalen,Muenster,48163,7.57,0
Nordrhein-Westfalen,Bochum,44833,5.8,0
Bayern,Kaufbeuren,87602,6.99,0
Niedersachsen,Hannover,30551,9.4,0
Nordrhein-Westfalen,Aachen,52067,8.44,0
Nordrhein-Westfalen,Moenchengladbach,41076,4.93,0
Baden-Wuerttemberg,Reutlingen,72762,8.16,0
Bayern,Hof,95030,5.73,0
Hessen,Darmstadt,64292,9.87,0
Hessen,Kassel,34307,6.3,0
Hessen,Marburg,35044,9.56,0
Hessen,Kassel,34245,7.24,0
Baden-Wuerttemberg,Freiburg im Breisgau,79106,11.3,0
Nordrhein-Westfalen,Essen,45144,7.63,0
Nordrhein-Westfalen,Bielefeld,33667,7.29,0
Hessen,Offenbach am Main,63069,10.67,0
Nordrhein-Westfalen,Duesseldorf,40458,9.09,0
Baden-Wuerttemberg,Heidelberg,69116,10.42,0
Baden-Wuerttemberg,Tuebingen,72076,8.43,0
Niedersachsen,Goettingen,37080,8.38,0
Nordrhein-Westfalen,Aachen,52069,7.54,0
Hessen,Darmstadt,64283,10.41,0
Niedersachsen,Oldenburg,26124,8.13,0
Bayern,Landshut,84030,9.59,0
Baden-Wuerttemberg,Mannheim,68192,7.63,0
Nordrhein-Westfalen,Gelsenkirchen,45891,5.64,0
Baden-Wuerttemberg,Reutlingen,72767,7.69,0
Nordrhein-Westfalen,Koeln,50710,10.76,0
Bayern,Bayreuth,95447,8.48,0
Nordrhein-Westfalen,Gelsenkirchen,45895,4.4,0
Baden-Wuerttemberg,Ulm,89126,12.19,0
Hessen,Darmstadt,64291,8.96,0
Baden-Wuerttemberg,Freiburg im Breisgau,79100,12.25,0
Nordrhein-Westfalen,Gelsenkirchen,45879,3.83,0
Hessen,Frankfurt am Main,64953,13.48,0
Nordrhein-Westfalen,Koeln,51338,9.3,0
Nordrhein-Westfalen,Wuppertal,42198,5.96,0
Nordrhein-Westfalen,Koeln,50767,9.05,0
Niedersachsen,Wolfsburg,38446,8.86,0
Hessen,Offenbach am Main,63075,10.11,0
Baden-Wuerttemberg,Stuttgart,70385,14.34,0
Nordrhein-Westfalen,Duisburg,47258,5.32,0
Bayern,Wuerzburg,97071,9.72,0
Nordrhein-Westfalen,Bonn,53160,9.71,0
Nordrhein-Westfalen,Muenster,48166,9.33,0
Nordrhein-Westfalen,Aachen,52077,8.87,0
Bayern,Neu-Ulm,89231,11.4,0
Bayern,Erlangen,91055,10.75,0
Bayern,Landshut,84034,7.13,0
Hessen,Offenbach am Main,63067,12.11,0
Nordrhein-Westfalen,Koeln,50823,8.51,0
Niedersachsen,Hildesheim,31136,7.0,0
Nordrhein-Westfalen,Muenster,48151,8.23,0
Niedersachsen,Hannover,30297,9.16,0
Baden-Wuerttemberg,Esslingen am Neckar,73731,9.53,0
Hessen,Darmstadt,64294,10.6,0
Nordrhein-Westfalen,Muenster,48144,7.58,0
Nordrhein-Westfalen,Koeln,51245,8.39,0
Nordrhein-Westfalen,Muenster,48158,7.79,0
Niedersachsen,Oldenburg,26128,7.13,0
Baden-Wuerttemberg,Karlsruhe,76191,7.69,0
Hessen,Hanau,63452,7.92,0
Hessen,Offenbach am Main,63067,12.14,0
Hessen,Giessen,35390,9.84,0
Baden-Wuerttemberg,Heidelberg,69126,11.41,0
Niedersachsen,Hannover,30332,10.53,0
Baden-Wuerttemberg,Esslingen am Neckar,73732,9.4,0
Hessen,Fulda,36043,8.98,0
Baden-Wuerttemberg,Karlsruhe,76206,10.5,0
Bayern,Aschaffenburg,63742,8.97,0
Niedersachsen,Hannover,30330,9.76,0
Hessen,Fulda,36039,8.48,0
Baden-Wuerttemberg,Pforzheim,75173,6.0,0
Bayern,Fuerth,90765,8.82,0
Hessen,Darmstadt,64289,9.46,0
Nordrhein-Westfalen,Wuppertal,42223,4.48,0
Baden-Wuerttemberg,Freiburg im Breisgau,79099,11.49,0
Hessen,Marburg,35045,10.04,0
Baden-Wuerttemberg,Mannheim,68244,9.28,0
Baden-Wuerttemberg,Heilbronn,74080,10.31,0
Bayern,Neu-Ulm,89232,8.1,0
Bayern,Wuerzburg,97076,10.6,0
Hessen,Marburg,35088,8.82,0
Nordrhein-Westfalen,Bielefeld,33624,6.83,0
Nordrhein-Westfalen,Wuppertal,42310,6.35,0
Bayern,Kaufbeuren,87601,6.77,0
Niedersachsen,Osnabrueck,49074,6.73,0
Niedersachsen,Oldenburg,26129,11.14,0
Hessen,Fulda,36039,10.55,0
Niedersachsen,Goettingen,37084,10.38,0
Niedersachsen,Wolfsburg,38442,10.07,0
Bayern,Muenchen,80424,13.71,0
Hessen,Fulda,36037,6.73,0
Bayern,Muenchen,81082,12.01,0
Hessen,Ruesselsheim am Main,65429,8.76,0
Hessen,Kassel,34166,9.42,0
Nordrhein-Westfalen,Wuppertal,42141,6.49,0
Baden-Wuerttemberg,Reutlingen,72760,6.66,0
Bayern,Memmingen,87702,7.11,0
Hessen,Frankfurt am Main,64098,15.53,0
Baden-Wuerttemberg,Ludwigsburg,71656,9.34,0
Nordrhein-Westfalen,Dortmund,44293,6.3,0
Hessen,Fulda,36040,9.24,0
Nordrhein-Westfalen,Duisburg,47133,5.26,0
Baden-Wuerttemberg,Heilbronn,74080,9.6,0
Hessen,Giessen,35398,8.1,0
Niedersachsen,Oldenburg,26129,8.91,0
Niedersachsen,Wolfsburg,38442,10.47,0
Nordrhein-Westfalen,Koeln,50832,8.16,0
Niedersachsen,Wolfsburg,38447,9.44,0
Nordrhein-Westfalen,Moenchengladbach,41103,6.17,0
Niedersachsen,Hannover,30666,10.21,0
Hessen,Wiesbaden,63226,9.37,0
Nordrhein-Westfalen,Wuppertal,42254,7.56,0
Baden-Wuerttemberg,Mannheim,68274,9.48,0
Bayern,Neu-Ulm,89233,11.54,0
Hessen,Marburg,35052,10.29,0
Nordrhein-Westfalen,Muenster,48157,7.66,0
Niedersachsen,Wolfsburg,38447,11.26,0
Hessen,Giessen,35390,8.96,0
Nordrhein-Westfalen,Moenchengladbach,41237,6.96,0
Nordrhein-Westfalen,Bochum,44833,6.78,0
Niedersachsen,Oldenburg,26123,8.34,0
Hessen,Darmstadt,64292,10.53,0
Hessen,Marburg,35060,9.48,0
Bayern,Bamberg,96048,9.48,0
Niedersachsen,Wolfsburg,38441,8.67,0
Baden-Wuerttemberg,Tuebingen,72073,7.44,0
Bayern,Kempten,87435,7.98,0
Bayern,Erlangen,91054,10.63,0
Bayern,Bamberg,96048,10.26,0
Niedersachsen,Oldenburg,26128,8.44,0
Niedersachsen,Goettingen,37077,9.41,0
Hessen,Darmstadt,64292,11.44,0
Nordrhein-Westfalen,Moenchengladbach,41088,6.53,0
Niedersachsen,Hildesheim,31140,5.37,0
Niedersachsen,Goettingen,37078,10.01,0
Bayern,Straubing,94316,7.34,0
Bayern,Bamberg,96052,7.33,0
Baden-Wuerttemberg,Karlsruhe,76146,10.41,0
Baden-Wuerttemberg,Stuttgart,70264,13.71,0
Hessen,Fulda,36038,8.27,0
Nordrhein-Westfalen,Bielefeld,33686,6.14,0
Hessen,Frankfurt am Main,63817,14.76,0
Hessen,Ruesselsheim am Main,65428,7.62,0
Nordrhein-Westfalen,Gelsenkirchen,45880,6.01,0
Hessen,Kassel,34236,8.99,0
Bayern,Ingolstadt,85054,10.12,0
Bayern,Muenchen,85058,12.76,0
Niedersachsen,Hannover,30432,10.34,0
Nordrhein-Westfalen,Aachen,52075,7.05,0
Hessen,Darmstadt,64287,8.6,0
Niedersachsen,Hildesheim,31135,6.81,0
Hessen,Hanau,63457,9.19,0
Hessen,Hanau,63451,10.48,0
Hessen,Darmstadt,64292,10.02,0
Bayern,Kaufbeuren,87602,8.37,0
Baden-Wuerttemberg,Ludwigsburg,71654,6.93,0
Niedersachsen,Goettingen,37079,10.23,0
Hessen,Hanau,63454,10.0,0
Nordrhein-Westfalen,Duisburg,47185,5.45,0
Hessen,Giessen,35390,9.01,0
Niedersachsen,Hildesheim,31139,7.22,0
Bayern,Neu-Ulm,89232,10.62,0
Hessen,Ruesselsheim am Main,65428,8.33,0
Bayern,Bamberg,96051,9.79,0
Nordrhein-Westfalen,Moenchengladbach,41074,5.47,0
Nordrhein-Westfalen,Wuppertal,42161,6.42,0
Hessen,Kassel,34205,7.17,0
Nordrhein-Westfalen,Gelsenkirchen,45883,6.45,0
Nordrhein-Westfalen,Duisburg,47114,6.72,0
Baden-Wuerttemberg,Esslingen am Neckar,73733,8.0,0
Nordrhein-Westfalen,Bonn,53124,8.46,0
Bayern,Dachau,85222,10.34,0
Hessen,Giessen,35397,9.65,0
Bayern,Hof,95030,6.05,0
Nordrhein-Westfalen,Duesseldorf,40252,8.62,0
Bayern,Bayreuth,95448,8.95,0
Nordrhein-Westfalen,Bochum,44807,7.56,0
Bayern,Muenchen,84037,12.36,0
Bayern,Kempten,87437,8.34,0
Hessen,Wiesbaden,58267,11.38,0
Baden-Wuerttemberg,Reutlingen,72766,6.8,0
Bayern,Passau,94036,9.45,0
Nordrhein-Westfalen,Bochum,44824,4.12,0
Hessen,Hanau,63453,9.4,0
Nordrhein-Westfalen,Dortmund,44264,7.36,0
Niedersachsen,Goettingen,37077,9.05,0
Hessen,Ruesselsheim am Main,65429,7.25,0
Niedersachsen,Hildesheim,31140,6.8,0
Baden-Wuerttemberg,Karlsruhe,76206,8.47,0
Hessen,Hanau,63453,6.84,0
Hessen,Wiesbaden,59744,9.94,0
Hessen,Giessen,35393,8.82,0
Baden-Wuerttemberg,Ulm,89095,12.73,0
Baden-Wuerttemberg,Reutlingen,72770,7.2,0
Niedersachsen,Oldenburg,26135,6.94,0
Baden-Wuerttemberg,Heidelberg,69117,11.71,0
Baden-Wuerttemberg,Reutlingen,72770,6.47,0
Baden-Wuerttemberg,Esslingen am Neckar,73731,8.57,0
Hessen,Wiesbaden,60028,9.96,0
Bayern,Straubing,94315,8.24,0
Baden-Wuerttemberg,Pforzheim,75174,7.99,0
Baden-Wuerttemberg,Heidelberg,69116,12.27,0
Nordrhein-Westfalen,Bielefeld,33720,5.8,0
Hessen,Marburg,35038,9.19,0
Nordrhein-Westfalen,Wuppertal,42110,5.59,0
Hessen,Marburg,35046,11.25,0
Nordrhein-Westfalen,Moenchengladbach,41078,6.88,0
Baden-Wuerttemberg,Mannheim,68293,8.72,0
Hessen,Offenbach am Main,63070,8.86,0
Hessen,Marburg,35075,8.75,0
Baden-Wuerttemberg,Ulm,89084,9.9,0
Nordrhein-Westfalen,Muenster,48161,7.3,0
Niedersachsen,Goettingen,37079,8.16,0
Baden-Wuerttemberg,Stuttgart,70213,14.94,0
Bayern,Neu-Ulm,89233,11.58,0
Baden-Wuerttemberg,Pforzheim,75181,7.37,0
Baden-Wuerttemberg,Tuebingen,72071,7.86,0
Hessen,Fulda,36038,9.02,0
Nordrhein-Westfalen,Bochum,44805,4.81,0
Bayern,Landshut,84029,7.12,0
Nordrhein-Westfalen,Essen,45272,5.99,0
Niedersachsen,Goettingen,37073,8.01,0
Hessen,Marburg,35043,8.91,0
Hessen,Marburg,35041,10.01,0
Nordrhein-Westfalen,Duisburg,47152,6.48,0
Baden-Wuerttemberg,Tuebingen,72072,10.28,0
Baden-Wuerttemberg,Pforzheim,75181,8.8,0
Baden-Wuerttemberg,Tuebingen,72075,7.21,0
Bayern,Erlangen,91052,9.79,0
Baden-Wuerttemberg,Heidelberg,69125,12.81,0
Bayern,Dachau,85221,9.3,0
Baden-Wuerttemberg,Mannheim,68281,8.87,0
Hessen,Marburg,35071,8.59,0
Nordrhein-Westfalen,Gelsenkirchen,45883,5.62,0
Hessen,Wiesbaden,64554,11.43,0
Baden-Wuerttemberg,Ludwigsburg,71659,9.76,0
Bayern,Rosenheim,83022,9.04,0
Nordrhein-Westfalen,Moenchengladbach,41156,7.61,0
Nordrhein-Westfalen,Wuppertal,42223,6.03,0
Hessen,Ruesselsheim am Main,65428,9.13,0
Baden-Wuerttemberg,Karlsruhe,76157,10.19,0
Hessen,Frankfurt am Main,60720,15.47,0
Nordrhein-Westfalen,Bochum,44821,6.09,0
Bayern,Straubing,94315,6.91,0
Hessen,Darmstadt,64294,10.81,0
Hessen,Darmstadt,64297,9.77,0
Baden-Wuerttemberg,Ulm,89078,12.02,0
Baden-Wuerttemberg,Esslingen am Neckar,73731,9.58,0
Niedersachsen,Goettingen,37073,9.13,0
Hessen,Wiesbaden,65160,10.37,0
Niedersachsen,Goettingen,37083,8.51,0
Bayern,Regensburg,93056,10.13,0
Baden-Wuerttemberg,Esslingen am Neckar,73732,7.66,0
Baden-Wuerttemberg,Stuttgart,70604,14.99,0
Baden-Wuerttemberg,Stuttgart,70598,14.89,0
Hessen,Ruesselsheim am Main,65428,8.66,0
Nordrhein-Westfalen,Muenster,48147,7.23,0
Baden-Wuerttemberg,Tuebingen,72071,8.22,0
Nordrhein-Westfalen,Gelsenkirchen,45881,5.99,0
Hessen,Darmstadt,64283,10.35,0
Bayern,Regensburg,93052,10.46,0
Nordrhein-Westfalen,Moenchengladbach,41238,6.19,0
Nordrhein-Westfalen,Bonn,53155,9.73,0
Hessen,Ruesselsheim am Main,65429,10.23,0
Nordrhein-Westfalen,Bochum,44842,5.55,0
Baden-Wuerttemberg,Reutlingen,72770,5.41,0
Nordrhein-Westfalen,Muenster,48164,8.49,0
Baden-Wuerttemberg,Heidelberg,69126,9.84,0
Hessen,Kassel,34212,8.38,0
Bayern,Kaufbeuren,87600,5.06,0
Nordrhein-Westfalen,Gelsenkirchen,45898,6.14,0
Nordrhein-Westfalen,Dortmund,44363,7.0,0
Hessen,Offenbach am Main,63070,11.1,0
Niedersachsen,Oldenburg,26121,9.42,0
Niedersachsen,Oldenburg,26127,8.94,0
Baden-Wuerttemberg,Stuttgart,70512,15.16,0
Bayern,Kempten,87439,8.41,0
Hessen,Frankfurt am Main,65865,14.73,0
Nordrhein-Westfalen,Moenchengladbach,41198,5.75,0
Bayern,Straubing,94315,8.45,0
Baden-Wuerttemberg,Ulm,89112,12.71,0
Hessen,Darmstadt,64287,12.1,0
Bayern,Augsburg,86171,10.06,0
Bayern,Bayreuth,95446,8.16,0
Baden-Wuerttemberg,Ulm,89107,12.9,0
Hessen,Fulda,36038,8.69,0
Nordrhein-Westfalen,Bonn,53166,8.43,0
Bayern,Schweinfurt,97423,6.23,0
Baden-Wuerttemberg,Heilbronn,74081,10.69,0
Baden-Wuerttemberg,Tuebingen,72070,9.16,0
Hessen,Kassel,34118,7.23,0
Nordrhein-Westfalen,Bonn,53130,8.31,0
Bayern,Muenchen,84272,11.61,0
Hessen,Marburg,35040,8.69,0
Baden-Wuerttemberg,Karlsruhe,76227,9.35,0
Baden-Wuerttemberg,Ulm,89125,12.62,0
Bayern,Augsburg,86160,9.53,0
Baden-Wuerttemberg,Freiburg im Breisgau,79103,12.71,0
Nordrhein-Westfalen,Wuppertal,42385,4.8,0
Hessen,Fulda,36037,6.41,0
Bayern,Regensburg,93053,10.73,0
Hessen,Hanau,63457,9.46,0
Bayern,Regensburg,93048,9.91,0
Bayern,Schweinfurt,97421,4.63,0
Nordrhein-Westfalen,Bielefeld,33718,7.01,0
Baden-Wuerttemberg,Tuebingen,72070,9.75,0
Nordrhein-Westfalen,Bochum,44787,5.01,0
Baden-Wuerttemberg,Stuttgart,70173,13.5,0
Nordrhein-Westfalen,Bonn,53141,10.41,0
Baden-Wuerttemberg,Karlsruhe,76200,9.76,0
Baden-Wuerttemberg,Ludwigsburg,71670,10.07,0
Hessen,Hanau,63457,8.81,0
Bayern,Wuerzburg,97080,9.78,0
Bayern,Augsburg,86191,8.89,0
Hessen,Offenbach am Main,63075,12.29,0
Nordrhein-Westfalen,Moenchengladbach,41126,6.93,0
Bayern,Erlangen,91058,12.56,0
Nordrhein-Westfalen,Wuppertal,42333,4.79,0
Nordrhein-Westfalen,Wuppertal,42257,5.31,0
Hessen,Ruesselsheim am Main,65428,9.39,0
Baden-Wuerttemberg,Karlsruhe,76153,8.36,0
Bayern,Kempten,87437,9.44,0
Bayern,Rosenheim,83023,9.62,0
Baden-Wuerttemberg,Heilbronn,74073,11.14,0
Bayern,Memmingen,87700,7.69,0
Bayern,Schweinfurt,97422,6.84,0
Bayern,Hof,95031,5.92,0
Hessen,Kassel,34169,8.27,0
Baden-Wuerttemberg,Freiburg im Breisgau,79104,12.05,0
Nordrhein-Westfalen,Wuppertal,42248,5.15,0
Bayern,Bayreuth,95444,9.37,0
Nordrhein-Westfalen,Duisburg,47138,4.86,0
Bayern,Landshut,84035,9.12,0
Nordrhein-Westfalen,Moenchengladbach,41154,7.12,0
Bayern,Bayreuth,95448,7.83,0
Nordrhein-Westfalen,Aachen,52080,7.21,0
Bayern,Aschaffenburg,63739,7.88,0
Nordrhein-Westfalen,Dortmund,44181,6.91,0
Hessen,Frankfurt am Main,60549,13.38,0
Bayern,Nuernberg,90454,8.92,0
Baden-Wuerttemberg,Freiburg im Breisgau,79106,12.14,0
Nordrhein-Westfalen,Aachen,52076,8.09,0
Nordrhein-Westfalen,Moenchengladbach,41114,6.01,0
Nordrhein-Westfalen,Muenster,48157,9.04,0
Nordrhein-Westfalen,Duisburg,47163,5.64,0
Baden-Wuerttemberg,Karlsruhe,76180,8.81,0
Baden-Wuerttemberg,Ludwigsburg,71640,7.78,0
Bayern,Augsburg,86153,8.62,0
Bayern,Bayreuth,95448,10.48,0
Bayern,Ingolstadt,85051,11.44,0
Bayern,Muenchen,83212,15.26,0
Bayern,Bayreuth,95448,10.12,0
Hessen,Fulda,36038,8.78,0
Hessen,Kassel,34214,7.96,0
Nordrhein-Westfalen,Muenster,48160,8.96,0
Baden-Wuerttemberg,Stuttgart,70407,15.83,0
Niedersachsen,Oldenburg,26135,9.4,0
Bayern,Straubing,94315,6.92,0
Bayern,Fuerth,90764,9.74,0
Nordrhein-Westfalen,Aachen,52078,7.87,0
Bayern,Kaufbeuren,87601,5.64,0
Bayern,Passau,94034,8.72,0
Bayern,Neu-Ulm,89232,11.32,0
Nordrhein-Westfalen,Gelsenkirchen,45888,4.26,0
Baden-Wuerttemberg,Esslingen am Neckar,73734,9.95,0
Bayern,Augsburg,86183,10.01,0
Nordrhein-Westfalen,Duesseldorf,40628,9.02,0
Baden-Wuerttemberg,Tuebingen,72073,9.97,0
Nordrhein-Westfalen,Bielefeld,33629,7.21,0
Nordrhein-Westfalen,Duesseldorf,40691,8.55,0
Niedersachsen,Oldenburg,26124,7.11,0
Nordrhein-Westfalen,Duisburg,47082,6.23,0
Baden-Wuerttemberg,Heidelberg,69121,12.53,0
Bayern,Bamberg,96051,7.96,0
Nordrhein-Westfalen,Bonn,53158,8.81,0
Baden-Wuerttemberg,Esslingen am Neckar,73731,8.78,0
Bayern,Neu-Ulm,89231,11.73,0
Nordrhein-Westfalen,Gelsenkirchen,45885,4.39,0
Bayern,Regensburg,93052,10.56,0
Bayern,Dachau,85222,9.99,0
Baden-Wuerttemberg,Pforzheim,75175,8.44,0
Hessen,Frankfurt am Main,62498,14.17,0
Baden-Wuerttemberg,Freiburg im Breisgau,79109,11.04,0
Baden-Wuerttemberg,Freiburg im Breisgau,79112,13.41,0
Hessen,Offenbach am Main,63067,13.47,0
Nordrhein-Westfalen,Aachen,52069,7.94,0
Nordrhein-Westfalen,Aachen,52067,7.91,0
Baden-Wuerttemberg,Mannheim,68185,10.3,0
Baden-Wuerttemberg,Heidelberg,69125,12.74,0
Hessen,Fulda,36039,7.93,0
Baden-Wuerttemberg,Tuebingen,72070,6.51,0
Bayern,Rosenheim,83022,5.85,0
Baden-Wuerttemberg,Tuebingen,72074,8.87,0
Hessen,Offenbach am Main,63074,11.15,0
Nordrhein-Westfalen,Bonn,53126,8.62,0
Nordrhein-Westfalen,Aachen,52062,8.91,0
Baden-Wuerttemberg,Reutlingen,72768,6.36,0
Bayern,Freising,85355,10.59,0
Nordrhein-Westfalen,Essen,45220,6.82,0
Bayern,Wuerzburg,97070,11.09,0
Nordrhein-Westfalen,Wuppertal,42134,5.26,0
Baden-Wuerttemberg,Reutlingen,72763,5.31,0
Nordrhein-Westfalen,Gelsenkirchen,45879,4.23,0
Bayern,Kaufbeuren,87600,8.49,0
Bayern,Rosenheim,83022,7.89,0
Nordrhein-Westfalen,Duesseldorf,40350,9.78,0
Nordrhein-Westfalen,Bonn,53157,9.97,0
Nordrhein-Westfalen,Muenster,48154,9.93,0
Baden-Wuerttemberg,Freiburg im Breisgau,79100,11.92,0
Baden-Wuerttemberg,Mannheim,68179,9.39,0
Hessen,Frankfurt am Main,62985,14.53,0
Hessen,Wiesbaden,64846,9.46,0
Bayern,Hof,95029,4.8,0
Bayern,Nuernberg,90468,8.49,0
Baden-Wuerttemberg,Ludwigsburg,71660,9.94,0
Bayern,Straubing,94315,7.33,0
Nordrhein-Westfalen,Aachen,52079,9.13,0
Baden-Wuerttemberg,Mannheim,68221,10.29,0
Hessen,Darmstadt,64297,10.46,0
Bayern,Regensburg,93053,9.78,0
Baden-Wuerttemberg,Heilbronn,74076,12.55,0
Hessen,Fulda,36042,8.31,0
Hessen,Wiesbaden,56080,10.65,0
Bayern,Kaufbeuren,87602,6.57,0
Nordrhein-Westfalen,Essen,45150,7.58,0
Nordrhein-Westfalen,Bochum,44871,5.34,0
Hessen,Darmstadt,64287,10.55,0
Bayern,Schweinfurt,97424,5.77,0
Nordrhein-Westfalen,Dortmund,44159,5.75,0
Baden-Wuerttemberg,Stuttgart,70204,13.69,0
Bayern,Nuernberg,90448,9.94,0
Baden-Wuerttemberg,Karlsruhe,76206,9.33,0
Nordrhein-Westfalen,Essen,45322,6.64,0
Hessen,Darmstadt,64297,11.8,0
Baden-Wuerttemberg,Mannheim,68210,9.08,0
Hessen,Fulda,36041,7.24,0
Bayern,Aschaffenburg,63739,8.82,0
Nordrhein-Westfalen,Bochum,44787,4.13,0
Baden-Wuerttemberg,Ludwigsburg,71635,8.61,0
Bayern,Regensburg,93049,8.97,0
Baden-Wuerttemberg,Mannheim,68165,6.63,0
Baden-Wuerttemberg,Heilbronn,74075,11.02,0
Baden-Wuerttemberg,Ludwigsburg,71635,9.99,0
Bayern,Memmingen,87701,8.48,0
Bayern,Passau,94032,9.66,0
Baden-Wuerttemberg,Esslingen am Neckar,73729,8.63,0
Bayern,Bayreuth,95448,8.14,0
Hessen,Hanau,63457,8.97,0
Baden-Wuerttemberg,Stuttgart,70212,13.04,0
Bayern,Ingolstadt,85049,10.78,0
Bayern,Bayreuth,95444,7.95,0
Hessen,Frankfurt am Main,61833,14.54,0
Bayern,Fuerth,90764,8.09,0
Nordrhein-Westfalen,Bielefeld,33632,6.87,0
Nordrhein-Westfalen,Duesseldorf,40677,7.74,0
Hessen,Wiesbaden,64214,10.15,0
Baden-Wuerttemberg,Stuttgart,70625,14.17,0
Bayern,Neu-Ulm,89231,10.51,0
Hessen,Frankfurt am Main,65262,15.52,0
Bayern,Dachau,85221,11.12,0
Nordrhein-Westfalen,Essen,45359,8.09,0
Baden-Wuerttemberg,Pforzheim,75181,4.8,0
Nordrhein-Westfalen,Bielefeld,33626,8.08,0
Hessen,Hanau,63456,9.42,0
Bayern,Bayreuth,95445,8.65,0
Bayern,Memmingen,87702,7.02,0
Nordrhein-Westfalen,Bielefeld,33712,7.21,0
Bayern,Bamberg,96052,9.12,0
Hessen,Offenbach am Main,63074,11.11,0
Bayern,Aschaffenburg,63743,8.57,0
Hessen,Hanau,63457,9.95,0
Bayern,Augsburg,86194,9.95,0
Bayern,Hof,95029,3.83,0
Baden-Wuerttemberg,Freiburg im Breisgau,79099,12.88,0
Baden-Wuerttemberg,Tuebingen,72070,9.01,0
Nordrhein-Westfalen,Duesseldorf,40369,9.01,0
Bayern,Landshut,84033,9.53,0
Baden-Wuerttemberg,Karlsruhe,76183,10.52,0
Nordrhein-Westfalen,Bielefeld,33654,6.13,0
Hessen,Offenbach am Main,63065,10.51,0
Baden-Wuerttemberg,Heidelberg,69123,11.17,0
Bayern,Ingolstadt,85056,10.81,0
Baden-Wuerttemberg,Heidelberg,69125,10.39,0
Bayern,Ingolstadt,85051,11.17,0
Baden-Wuerttemberg,Tuebingen,72072,9.97,0
Bayern,Fuerth,90767,10.1,0
Bayern,Wuerzburg,97084,10.74,0
Baden-Wuerttemberg,Esslingen am Neckar,73733,8.87,0
Hessen,Offenbach am Main,63070,12.55,0
Nordrhein-Westfalen,Duesseldorf,40216,8.65,0
Bayern,Nuernberg,90443,8.76,0
Nordrhein-Westfalen,Dortmund,44267,6.35,0
Bayern,Schweinfurt,97424,5.61,0
Hessen,Frankfurt am Main,62864,13.01,0
Bayern,Hof,95029,3.53,0
Nordrhein-Westfalen,Gelsenkirchen,45895,4.31,0
Bayern,Rosenheim,83023,8.8,0
Nordrhein-Westfalen,Bonn,53219,8.82,0
Nordrhein-Westfalen,Aachen,52068,10.18,0
Bayern,Hof,95030,3.84,0
Bayern,Hof,95031,6.3,0
Bayern,Aschaffenburg,63739,8.28,0
Bayern,Rosenheim,83022,9.71,0
Bayern,Erlangen,91055,9.76,0
Hessen,Hanau,63457,9.19,0
Baden-Wuerttemberg,Karlsruhe,76150,9.6,0
Bayern,Straubing,94316,8.22,0
Nordrhein-Westfalen,Bielefeld,33653,6.59,0
Nordrhein-Westfalen,Dortmund,44147,7.83,0
Baden-Wuerttemberg,Ludwigsburg,71657,10.12,0
Nordrhein-Westfalen,Bochum,44811,6.08,0
Baden-Wuerttemberg,Pforzheim,75176,7.83,0
Bayern,Erlangen,91057,10.9,0
Hessen,Darmstadt,64295,11.49,0
Bayern,Bayreuth,95447,9.21,0
Bayern,Dachau,85222,10.8,0
Bayern,Neu-Ulm,89232,9.79,0
Bayern,Augsburg,86182,8.42,0
Bayern,Neu-Ulm,89231,11.56,0
Bayern,Fuerth,90765,10.1,0
Bayern,Aschaffenburg,63742,9.62,0
Baden-Wuerttemberg,Heilbronn,74078,9.33,0
Baden-Wuerttemberg,Freiburg im Breisgau,79111,12.47,0
Bayern,Erlangen,91055,10.35,0
Baden-Wuerttemberg,Pforzheim,75180,7.65,0
Nordrhein-Westfalen,Bochum,44830,5.64,0
Bayern,Dachau,85222,9.73,0
Bayern,Passau,94035,9.03,0
Nordrhein-Westfalen,Duisburg,47153,5.65,0
Nordrhein-Westfalen,Duisburg,47258,5.21,0
Bayern,Bayreuth,95447,10.01,0
Baden-Wuerttemberg,Mannheim,68260,10.11,0
Baden-Wuerttemberg,Mannheim,68237,9.47,0
Bayern,Bayreuth,95444,7.88,0
Bayern,Schweinfurt,97423,7.38,0
Hessen,Wiesbaden,62516,8.99,0
Nordrhein-Westfalen,Wuppertal,42244,5.49,0
Baden-Wuerttemberg,Ludwigsburg,71663,9.71,0
Bayern,Wuerzburg,97078,9.26,0
Hessen,Hanau,63452,9.6,0
Baden-Wuerttemberg,Heidelberg,69119,9.48,0
Nordrhein-Westfalen,Essen,45293,5.12,0
Bayern,Schweinfurt,97422,7.39,0
Nordrhein-Westfalen,Dortmund,44190,8.19,0
Baden-Wuerttemberg,Karlsruhe,76142,11.36,0
Hessen,Wiesbaden,63088,11.84,0
Baden-Wuerttemberg,Ludwigsburg,71669,9.49,0
Baden-Wuerttemberg,Freiburg im Breisgau,79103,13.73,0
Nordrhein-Westfalen,Duisburg,47077,7.66,0
Bayern,Straubing,94315,8.55,0
Hessen,Wiesbaden,63682,10.41,0
Bayern,Kaufbeuren,87602,6.71,0
Bayern,Bamberg,96052,7.37,0
Bayern,Nuernberg,90415,9.09,0
Nordrhein-Westfalen,Bonn,53215,7.88,0
Bayern,Straubing,94315,8.21,0
Baden-Wuerttemberg,Pforzheim,75176,8.07,0
Baden-Wuerttemberg,Freiburg im Breisgau,79108,11.33,0
Baden-Wuerttemberg,Heilbronn,74080,10.86,0
Baden-Wuerttemberg,Karlsruhe,76138,9.78,0
Bayern,Nuernberg,90486,8.44,0
Nordrhein-Westfalen,Essen,45136,4.61,0
Bayern,Regensburg,93059,9.81,0
Baden-Wuerttemberg,Heidelberg,69122,11.08,0
Hessen,Wiesbaden,61745,9.77,0
Bayern,Nuernberg,90443,9.97,0
Baden-Wuerttemberg,Esslingen am Neckar,73732,8.95,0
Nordrhein-Westfalen,Duisburg,47064,3.29,0
Nordrhein-Westfalen,Bonn,53155,8.25,0
Bayern,Passau,94034,8.88,0
Bayern,Rosenheim,83024,9.51,0
Nordrhein-Westfalen,Dortmund,44299,5.75,0
Baden-Wuerttemberg,Heidelberg,69124,11.59,0
Bayern,Regensburg,93047,9.47,0
Nordrhein-Westfalen,Bonn,53127,7.87,0
Bayern,Passau,94033,9.78,0
Nordrhein-Westfalen,Duisburg,47203,4.72,0
Bayern,Muenchen,80336,12.76,0
Nordrhein-Westfalen,Bochum,44787,4.77,0
Bayern,Regensburg,93059,8.17,0
Bayern,Hof,95029,4.35,0
Bayern,Passau,94032,8.32,0
Bayern,Regensburg,93049,11.61,0
Baden-Wuerttemberg,Tuebingen,72075,10.28,0
Bayern,Bamberg,96052,7.85,0
Nordrhein-Westfalen,Bochum,44843,5.18,0
Baden-Wuerttemberg,Heilbronn,74076,10.78,0
Bayern,Landshut,84036,8.3,0
Bayern,Kaufbeuren,87601,5.31,0
Baden-Wuerttemberg,Tuebingen,72071,8.51,0
Nordrhein-Westfalen,Essen,45265,7.02,0
Bayern,Nuernberg,90486,9.73,0
Bayern,Memmingen,87701,8.02,0
Baden-Wuerttemberg,Heilbronn,74081,10.11,0
Bayern,Wuerzburg,97083,8.65,0
Nordrhein-Westfalen,Duesseldorf,40637,8.39,0
Nordrhein-Westfalen,Essen,45152,8.04,0
Nordrhein-Westfalen,Bochum,44893,7.34,0
Bayern,Freising,85355,11.32,0
Baden-Wuerttemberg,Mannheim,68303,7.87,0
Bayern,Bayreuth,95446,9.22,0
Baden-Wuerttemberg,Heidelberg,69124,10.92,0
Bayern,Fuerth,90765,9.33,0
Nordrhein-Westfalen,Essen,45346,6.7,0
Bayern,Regensburg,93051,11.28,0
Baden-Wuerttemberg,Ludwigsburg,71639,8.7,0
Nordrhein-Westfalen,Bielefeld,33731,4.64,0
Baden-Wuerttemberg,Heidelberg,69126,12.81,0
Bayern,Ingolstadt,85054,11.81,0
Bayern,Wuerzburg,97076,10.9,0
Bayern,Memmingen,87702,6.35,0
Baden-Wuerttemberg,Freiburg im Breisgau,79117,12.81,0
Baden-Wuerttemberg,Mannheim,68226,9.28,0
Bayern,Neu-Ulm,89232,9.84,0
Bayern,Freising,85356,10.41,0
Bayern,Schweinfurt,97422,6.78,0
Bayern,Straubing,94316,6.03,0
Bayern,Landshut,84034,9.43,0
Nordrhein-Westfalen,Bielefeld,33621,7.33,0
Nordrhein-Westfalen,Bochum,44789,5.15,0
Bayern,Bamberg,96050,8.64,0
Bayern,Kaufbeuren,87602,6.16,0
Bayern,Neu-Ulm,89233,8.82,0
Bayern,Wuerzburg,97081,9.96,0
Bayern,Ingolstadt,85050,10.59,0
Bayern,Rosenheim,83024,9.04,0
Baden-Wuerttemberg,Freiburg im Breisgau,79113,12.29,0
Bayern,Schweinfurt,97421,5.16,0
Bayern,Schweinfurt,97422,5.25,0
Bayern,Erlangen,91058,12.02,0
Bayern,Memmingen,87702,10.16,0
Bayern,Freising,85354,11.4,0
Bayern,Aschaffenburg,63739,9.13,0
Bayern,Kaufbeuren,87602,6.5,0
Bayern,Bayreuth,95448,7.66,0
Bayern,Ingolstadt,85055,10.89,0
Bayern,Freising,85355,10.0,0
Baden-Wuerttemberg,Heidelberg,69117,11.33,0
Nordrhein-Westfalen,Bonn,53194,9.25,0
Bayern,Fuerth,90764,7.85,0
Nordrhein-Westfalen,Dortmund,44171,5.58,0
Bayern,Kempten,87439,7.72,0
Bayern,Memmingen,87701,7.0,0
Bayern,Muenchen,83716,10.85,0
Baden-Wuerttemberg,Heidelberg,69126,11.94,0
Bayern,Landshut,84033,10.35,0
Baden-Wuerttemberg,Heilbronn,74078,10.38,0
Bayern,Schweinfurt,97422,4.65,0
Bayern,Fuerth,90764,8.66,0
Bayern,Kempten,87435,10.27,0
Bayern,Aschaffenburg,63742,8.94,0
Baden-Wuerttemberg,Heilbronn,74079,10.42,0
Bayern,Dachau,85222,10.75,0
Bayern,Regensburg,93055,10.58,0
Bayern,Fuerth,90768,8.63,0
Nordrhein-Westfalen,Dortmund,44347,6.73,0
Bayern,Fuerth,90767,10.38,0
Bayern,Aschaffenburg,63740,9.38,0
Nordrhein-Westfalen,Duisburg,47116,4.13,0
Bayern,Freising,85356,10.51,0
Baden-Wuerttemberg,Heilbronn,74072,8.58,0
Bayern,Kempten,87436,7.93,0
Bayern,Schweinfurt,97421,6.11,0
Bayern,Schweinfurt,97424,4.43,0
Baden-Wuerttemberg,Mannheim,68245,9.77,0
Bayern,Nuernberg,90478,10.6,0
Baden-Wuerttemberg,Tuebingen,72074,7.88,0
Nordrhein-Westfalen,Dortmund,44368,6.64,0
Bayern,Fuerth,90765,8.99,0
Bayern,Nuernberg,90410,10.39,0
Bayern,Passau,94036,9.95,0
Bayern,Wuerzburg,97073,9.1,0
Bayern,Straubing,94316,6.15,0
Nordrhein-Westfalen,Duesseldorf,40413,9.86,0
Bayern,Regensburg,93049,10.19,0
Nordrhein-Westfalen,Bonn,53223,8.08,0
Bayern,Regensburg,93053,10.84,0
Bayern,Kaufbeuren,87600,7.87,0
Bayern,Kempten,87439,8.67,0
Bayern,Dachau,85222,11.44,0
Bayern,Kempten,87435,7.73,0
Nordrhein-Westfalen,Duesseldorf,40280,8.78,0
Nordrhein-Westfalen,Bonn,53192,7.7,0
Bayern,Freising,85356,12.59,0
Bayern,Landshut,84035,10.48,0
Bayern,Landshut,84029,8.87,0
Bayern,Nuernberg,90421,10.15,0
Bayern,Augsburg,86161,9.68,0
Bayern,Straubing,94315,5.6,0
Nordrhein-Westfalen,Duesseldorf,40613,6.68,0
Bayern,Memmingen,87700,7.57,0
Bayern,Augsburg,86166,10.94,0
Bayern,Ingolstadt,85057,9.26,0
Bayern,Aschaffenburg,63743,8.66,0
Bayern,Bamberg,96050,9.83,0
Bayern,Augsburg,86196,9.4,0
Bayern,Rosenheim,83022,8.86,0
Bayern,Dachau,85222,11.17,0
Bayern,Dachau,85221,8.97,0
Bayern,Bamberg,96049,9.27,0
Bayern,Bayreuth,95445,8.74,0
Baden-Wuerttemberg,Heidelberg,69121,10.93,0
Bayern,Nuernberg,90420,10.58,0
Bayern,Aschaffenburg,63739,9.46,0
Bayern,Landshut,84029,10.8,0
Bayern,Rosenheim,83024,7.32,0
Bayern,Landshut,84033,9.22,0
Bayern,Erlangen,91052,10.88,0
Bayern,Fuerth,90763,8.81,0
Bayern,Kaufbeuren,87601,6.53,0
Bayern,Kaufbeuren,87600,7.98,0
Bayern,Aschaffenburg,63743,9.61,0
Bayern,Augsburg,86194,10.28,0
Bayern,Straubing,94315,8.78,0
Bayern,Rosenheim,83026,8.26,0
Bayern,Kempten,87436,9.48,0
Bayern,Rosenheim,83024,10.55,0
Bayern,Bamberg,96047,7.8,0
Bayern,Bayreuth,95445,9.68,0
Bayern,Muenchen,83415,13.07,0
Bayern,Wuerzburg,97074,9.34,0
Bayern,Fuerth,90767,10.53,0
Bayern,Kempten,87436,8.25,0
Bayern,Hof,95028,4.76,0
Bayern,Dachau,85221,10.67,0
Bayern,Augsburg,86158,10.46,0
Bayern,Passau,94034,8.84,0
Bayern,Memmingen,87702,8.29,0
Bayern,Wuerzburg,97079,10.54,0
Bayern,Schweinfurt,97423,6.98,0
Bayern,Erlangen,91053,8.85,0
Bayern,Rosenheim,83022,7.78,0
Bayern,Erlangen,91054,11.88,0
Bayern,Kempten,87439,8.0,0
Bayern,Bamberg,96052,7.44,0
Bayern,Freising,85354,9.59,0
Bayern,Kempten,87435,7.39,0
Bayern,Rosenheim,83026,8.13,0
Bayern,Aschaffenburg,63740,9.08,0
Bayern,Fuerth,90765,10.79,0
Bayern,Kempten,87437,7.48,0
Bayern,Ingolstadt,85049,10.07,0
Bayern,Passau,94032,8.58,0
Bayern,Ingolstadt,85049,9.08,0
Bayern,Dachau,85222,10.1,0
Bayern,Muenchen,84541,12.44,0
Bayern,Fuerth,90762,9.18,0
Bayern,Bamberg,96047,8.93,0
Bayern,Hof,95029,5.94,0
Bayern,Ingolstadt,85052,11.33,0
Bayern,Muenchen,82974,11.28,0
Bayern,Dachau,85221,9.13,0
Bayern,Nuernberg,90475,9.97,0
Bayern,Aschaffenburg,63740,9.65,0
Bayern,Erlangen,91058,11.91,0
Bayern,Hof,95031,3.47,0
Bayern,Erlangen,91055,10.75,0
Bayern,Dachau,85221,10.42,0
Bayern,Passau,94036,8.39,0
Bayern,Dachau,85221,11.84,0
Bayern,Freising,85354,10.58,0
Bayern,Wuerzburg,97072,8.85,0
Bayern,Kaufbeuren,87600,8.68,0
Bayern,Hof,95032,3.12,0
Bayern,Fuerth,90762,10.59,0
Bayern,Muenchen,82752,13.96,0
Bayern,Kaufbeuren,87601,7.06,0
Bayern,Bamberg,96052,9.69,0
Bayern,Aschaffenburg,63741,9.47,0
Bayern,Wuerzburg,97073,10.31,0
Bayern,Nuernberg,90409,8.09,0
Bayern,Freising,85354,10.89,0
Bayern,Passau,94035,8.78,0
Bayern,Passau,94032,8.48,0
Bayern,Ingolstadt,85051,9.35,0
Bayern,Hof,95028,5.96,0
Bayern,Ingolstadt,85052,12.15,0
Bayern,Passau,94032,8.93,0
Bayern,Muenchen,81447,13.39,0
Bayern,Freising,85354,11.29,0
Bayern,Erlangen,91055,9.86,0
Bayern,Aschaffenburg,63740,8.72,0
Bayern,Muenchen,83106,13.95,0
Bayern,Erlangen,91058,11.72,0
Bayern,Hof,95031,3.04,0
Bayern,Hof,95031,5.59,0
Bayern,Augsburg,86161,9.13,0
Bayern,Kaufbeuren,87602,8.41,0
Bayern,Ingolstadt,85053,10.3,0
Bayern,Memmingen,87702,5.93,0
Bayern,Augsburg,86177,10.27,0
Bayern,Memmingen,87701,10.21,0
Bayern,Aschaffenburg,63740,8.03,0
Bayern,Hof,95029,4.18,0
Bayern,Muenchen,82444,12.83,0
Bayern,Augsburg,86178,9.66,0
Bayern,Ingolstadt,85051,11.1,0
Bayern,Freising,85354,11.64,0
Bayern,Freising,85355,11.04,0
Bayern,Freising,85356,10.68,0
Bayern,Freising,85356,11.15,0
Nordrhein-Westfalen,Osnabrueck,49078,7.5,1
Bayern,Osnabrueck,49074,7.87,1
Bayern,Dachau,71660,10.1,1
Hessen,Dachau,85222,10.67,1
Niedersachsen,Wolfsburg,86196,9.7,1
Niedersachsen,Wolfsburg,44267,9.13,1
Hessen,Karlsruhe,76183,9.78,1
Bayern,Karlsruhe,76206,9.6,1
Hessen,Kaufbeuren,86157,5.06,1
Baden-Wuerttemberg,Kaufbeuren,87600,6.71,1
Baden-Wuerttemberg,Muenster,48158,6.27,1
Nordrhein-Westfalen,Muenster,95029,6.97,1
Nordrhein-Westfalen,Wuppertal,34302,6.18,1
Nordrhein-Westfalen,Wuppertal,35088,4.48,1
Hessen,Offenbach am Main,40637,11.11,1
Hessen,Offenbach am Main,48143,12.09,1
Nordrhein-Westfalen,Duisburg,49075,6.23,1
Nordrhein-Westfalen,Duisburg,94034,6.82,1
Niedersachsen,Oldenburg,34245,8.91,1
Niedersachsen,Oldenburg,72763,8.91,1
Bayern,Ruesselsheim am Main,65429,8.66,1
Baden-Wuerttemberg,Ruesselsheim am Main,65429,8.33,1
Baden-Wuerttemberg,Koeln,50698,10.76,1
Bayern,Koeln,50710,9.05,1
Nordrhein-Westfalen,Braunschweig,38102,7.43,1
Bayern,Braunschweig,38105,7.54,1
Bayern,Essen,45136,7.48,1
Niedersachsen,Essen,87439,7.42,1
Nordrhein-Westfalen,Muenchen,83415,12.83,1
Nordrhein-Westfalen,Muenchen,42296,12.76,1
Bayern,Rosenheim,89139,7.32,1
Bayern,Rosenheim,30406,9.51,1
Bayern,Kassel,34186,8.27,1
Hessen,Kassel,63742,7.24,1
Hessen,Dortmund,86158,6.73,1
Niedersachsen,Dortmund,44299,8.3,1
Nordrhein-Westfalen,Mannheim,68179,8.87,1
Hessen,Mannheim,72074,8.19,1
Nordrhein-Westfalen,Bielefeld,74075,7.21,1
Baden-Wuerttemberg,Bielefeld,33610,6.18,1
Nordrhein-Westfalen,Pforzheim,75181,6.42,1
Bayern,Pforzheim,75173,11.24,1
Bayern,Frankfurt am Main,64338,13.01,1
Bayern,Frankfurt am Main,40369,14.54,1
Baden-Wuerttemberg,Bochum,44807,5.8,1
Hessen,Bochum,44880,7.56,1
Hessen,Giessen,70177,9.7,1
Hessen,Giessen,45152,9.84,1
Hessen,Fulda,38102,9.24,1
Hessen,Fulda,90475,6.73,1
Niedersachsen,Hildesheim,69116,6.81,1
Niedersachsen,Hildesheim,70264,6.8,1
Nordrhein-Westfalen,Hanau,63456,10.04,1
Baden-Wuerttemberg,Hanau,63451,7.92,1
Hessen,Gelsenkirchen,45892,5.62,1
Niedersachsen,Gelsenkirchen,45890,4.39,1
Nordrhein-Westfalen,Heilbronn,74072,11.14,1
Nordrhein-Westfalen,Heilbronn,47185,9.33,1
Hessen,Marburg,44842,8.8,1
Hessen,Marburg,52079,10.29,1
Nordrhein-Westfalen,Freiburg im Breisgau,79110,12.29,1
Bayern,Freiburg im Breisgau,35397,11.74,1
Nordrhein-Westfalen,Duesseldorf,90478,8.35,1
Nordrhein-Westfalen,Duesseldorf,48147,8.62,1
Hessen,Esslingen am Neckar,73730,8.63,1
Niedersachsen,Esslingen am Neckar,73728,8.87,1
Bayern,Reutlingen,72073,6.66,1
Niedersachsen,Reutlingen,72769,7.27,1
Hessen,Hannover,64291,10.39,1
Hessen,Hannover,60720,9.4,1
Niedersachsen,Goettingen,70204,9.13,1
Nordrhein-Westfalen,Goettingen,69116,9.26,1
Bayern,Stuttgart,70598,15.04,1
Niedersachsen,Stuttgart,79113,14.94,1
Baden-Wuerttemberg,Ingolstadt,85052,9.35,1
Baden-Wuerttemberg,Ingolstadt,36038,10.3,1
Hessen,Neu-Ulm,89232,11.54,1
Hessen,Neu-Ulm,26132,11.58,1
Bayern,Bayreuth,75176,9.68,1
Niedersachsen,Bayreuth,95446,7.83,1
Bayern,Fuerth,45152,10.38,1
Niedersachsen,Fuerth,90762,9.18,1
Bayern,Regensburg,96051,10.13,1
Nordrhein-Westfalen,Regensburg,93055,11.28,1
Bayern,Passau,71668,8.39,1
Bayern,Passau,84036,8.4,1
Bayern,Augsburg,50887,8.42,1
Hessen,Augsburg,86153,10.94,1
Hessen,Memmingen,87700,7.55,1
Baden-Wuerttemberg,Memmingen,87701,7.69,1
Nordrhein-Westfalen,Ludwigsburg,71657,8.7,1
Niedersachsen,Ludwigsburg,71639,8.09,1
Niedersachsen,Moenchengladbach,41130,4.21,1
Hessen,Moenchengladbach,41130,5.18,1
Bayern,Straubing,63742,7.34,1
Nordrhein-Westfalen,Straubing,63742,8.45,1
Nordrhein-Westfalen,Freising,85354,11.4,1
Nordrhein-Westfalen,Freising,40691,11.32,1
Bayern,Landshut,89159,10.2,1
Hessen,Landshut,89159,10.35,1
Niedersachsen,Nuernberg,90409,11.11,1
Baden-Wuerttemberg,Nuernberg,90408,8.76,1
Hessen,Ulm,89112,11.73,1
Baden-Wuerttemberg,Ulm,74079,10.48,1
Bayern,Bamberg,81638,8.97,1
Nordrhein-Westfalen,Bamberg,69117,7.37,1
Niedersachsen,Kempten,87439,9.37,1
Bayern,Kempten,38440,7.39,1
Bayern,Aschaffenburg,72073,9.38,1
Bayern,Aschaffenburg,41103,9.47,1
Baden-Wuerttemberg,Wiesbaden,64846,11.84,1
Baden-Wuerttemberg,Wiesbaden,68237,11.43,1
Nordrhein-Westfalen,Schweinfurt,97424,6.11,1
Bayern,Schweinfurt,91057,6.32,1
Bayern,Erlangen,65429,10.88,1
Hessen,Erlangen,91053,9.86,1
Nordrhein-Westfalen,Aachen,85057,10.18,1
Bayern,Aachen,52077,7.86,1
Hessen,Bonn,53197,8.82,1
Hessen,Bonn,44293,9.25,1
Bayern,Wuerzburg,38447,10.56,1
Bayern,Wuerzburg,34273,10.56,1
Bayern,Hof,76142,5.94,1
Niedersachsen,Hof,95028,5.59,1
Hessen,Tuebingen,86194,7.86,1
Niedersachsen,Tuebingen,72071,8.51,1
Hessen,Darmstadt,44171,10.81,1
Hessen,Darmstadt,53219,9.64,1
Niedersachsen,Heidelberg,69125,11.94,1
Niedersachsen,Heidelberg,30242,10.39,1
